{
  "type": "FeatureCollection",
  "features": [
    {
      "type": "Feature",
      "properties": {
        "norad_id": 35717,
        "name": "COSMOS 2251 DEB",
        "group": "cosmos-2251-debris",
        "lat": 74.10553306138955,
        "lon": -30.17580650093889,
        "alt_km": 702.578973099924,
        "timestamp": "2025-12-02T23:34:15.913818+00:00",
        "meta_object_name": "COSMOS 2251 DEB",
        "meta_object_id": "1993-036AQN",
        "meta_epoch": "2025-11-20T02:19:42.985056",
        "meta_mean_motion": 14.38259242,
        "meta_eccentricity": 0.00762455,
        "meta_inclination": 74.1612,
        "meta_ra_of_asc_node": 258.9085,
        "meta_arg_of_pericenter": 125.8129,
        "meta_mean_anomaly": 235.0143,
        "meta_ephemeris_type": 0,
        "meta_classification_type": "U",
        "meta_norad_cat_id": 35717,
        "meta_element_set_no": 999,
        "meta_rev_at_epoch": 73774,
        "meta_bstar": 0.0010708512,
        "meta_mean_motion_dot": 3.344e-05,
        "meta_mean_motion_ddot": 0,
        "tle_line1": "1 35717U 93036AQN 25324.09702529  .00003344  00000+0  10709-2 0  9996",
        "tle_line2": "2 35717  74.1612 258.9085 0076245 125.8129 235.0143 14.38259242737741"
      },
      "geometry": {
        "type": "Point",
        "coordinates": [
          -30.17580650093889,
          74.10553306138955
        ]
      }
    },
    {
      "type": "Feature",
      "properties": {
        "norad_id": 35718,
        "name": "COSMOS 2251 DEB",
        "group": "cosmos-2251-debris",
        "lat": -37.83065808162138,
        "lon": -18.30122323488431,
        "alt_km": 664.3483456183067,
        "timestamp": "2025-12-02T23:34:15.913828+00:00",
        "meta_object_name": "COSMOS 2251 DEB",
        "meta_object_id": "1993-036AQP",
        "meta_epoch": "2025-11-28T18:49:36.496416",
        "meta_mean_motion": 14.68279459,
        "meta_eccentricity": 0.00123436,
        "meta_inclination": 74.0315,
        "meta_ra_of_asc_node": 156.9668,
        "meta_arg_of_pericenter": 206.7375,
        "meta_mean_anomaly": 153.316,
        "meta_ephemeris_type": 0,
        "meta_classification_type": "U",
        "meta_norad_cat_id": 35718,
        "meta_element_set_no": 999,
        "meta_rev_at_epoch": 65635,
        "meta_bstar": 0.0013999458,
        "meta_mean_motion_dot": 8.062e-05,
        "meta_mean_motion_ddot": 0,
        "tle_line1": "1 35718U 93036AQP 25332.78445019  .00008062  00000+0  13999-2 0  9996",
        "tle_line2": "2 35718  74.0315 156.9668 0012343 206.7375 153.3160 14.68279459656359"
      },
      "geometry": {
        "type": "Point",
        "coordinates": [
          -18.30122323488431,
          -37.83065808162138
        ]
      }
    },
    {
      "type": "Feature",
      "properties": {
        "norad_id": 35721,
        "name": "COSMOS 2251 DEB",
        "group": "cosmos-2251-debris",
        "lat": 1.7986061144829304,
        "lon": -163.77611785720794,
        "alt_km": 680.212311086837,
        "timestamp": "2025-12-02T23:34:15.913839+00:00",
        "meta_object_name": "COSMOS 2251 DEB",
        "meta_object_id": "1993-036AQS",
        "meta_epoch": "2025-11-29T21:54:16.243200",
        "meta_mean_motion": 14.34192363,
        "meta_eccentricity": 0.01464404,
        "meta_inclination": 73.9503,
        "meta_ra_of_asc_node": 201.3539,
        "meta_arg_of_pericenter": 350.3358,
        "meta_mean_anomaly": 9.498,
        "meta_ephemeris_type": 0,
        "meta_classification_type": "U",
        "meta_norad_cat_id": 35721,
        "meta_element_set_no": 999,
        "meta_rev_at_epoch": 57605,
        "meta_bstar": 0.0014885779,
        "meta_mean_motion_dot": 4.68e-05,
        "meta_mean_motion_ddot": 0,
        "tle_line1": "1 35721U 93036AQS 25333.91268800  .00004680  00000+0  14886-2 0  9995",
        "tle_line2": "2 35721  73.9503 201.3539 0146440 350.3358   9.4980 14.34192363576055"
      },
      "geometry": {
        "type": "Point",
        "coordinates": [
          -163.77611785720794,
          1.7986061144829304
        ]
      }
    },
    {
      "type": "Feature",
      "properties": {
        "norad_id": 35724,
        "name": "COSMOS 2251 DEB",
        "group": "cosmos-2251-debris",
        "lat": -6.017908118640177,
        "lon": 142.9826122306624,
        "alt_km": 686.7875395900837,
        "timestamp": "2025-12-02T23:34:15.913849+00:00",
        "meta_object_name": "COSMOS 2251 DEB",
        "meta_object_id": "1993-036AQV",
        "meta_epoch": "2025-11-30T08:09:18.426240",
        "meta_mean_motion": 14.58149733,
        "meta_eccentricity": 0.00590888,
        "meta_inclination": 74.0317,
        "meta_ra_of_asc_node": 326.2795,
        "meta_arg_of_pericenter": 123.6188,
        "meta_mean_anomaly": 237.0635,
        "meta_ephemeris_type": 0,
        "meta_classification_type": "U",
        "meta_norad_cat_id": 35724,
        "meta_element_set_no": 999,
        "meta_rev_at_epoch": 87348,
        "meta_bstar": 0.00024156118,
        "meta_mean_motion_dot": 1.11e-05,
        "meta_mean_motion_ddot": 0,
        "tle_line1": "1 35724U 93036AQV 25334.33979660  .00001110  00000+0  24156-3 0  9995",
        "tle_line2": "2 35724  74.0317 326.2795 0059088 123.6188 237.0635 14.58149733873489"
      },
      "geometry": {
        "type": "Point",
        "coordinates": [
          142.9826122306624,
          -6.017908118640177
        ]
      }
    },
    {
      "type": "Feature",
      "properties": {
        "norad_id": 35759,
        "name": "COSMOS 2251 DEB",
        "group": "cosmos-2251-debris",
        "lat": 10.931288342917624,
        "lon": 51.64123132321624,
        "alt_km": 732.4589398316211,
        "timestamp": "2025-12-02T23:34:15.913859+00:00",
        "meta_object_name": "COSMOS 2251 DEB",
        "meta_object_id": "1993-036ARD",
        "meta_epoch": "2025-12-02T09:41:30.766848",
        "meta_mean_motion": 14.648293,
        "meta_eccentricity": 0.007669,
        "meta_inclination": 74.0385,
        "meta_ra_of_asc_node": 235.9215,
        "meta_arg_of_pericenter": 356.5872,
        "meta_mean_anomaly": 3.4761,
        "meta_ephemeris_type": 0,
        "meta_classification_type": "U",
        "meta_norad_cat_id": 35759,
        "meta_element_set_no": 999,
        "meta_rev_at_epoch": 65984,
        "meta_bstar": 0.00048579,
        "meta_mean_motion_dot": 2.675e-05,
        "meta_mean_motion_ddot": 0,
        "tle_line1": "1 35759U 93036ARD 25336.40382832  .00002675  00000+0  48579-3 0  9994",
        "tle_line2": "2 35759  74.0385 235.9215 0076690 356.5872   3.4761 14.64829300659849"
      },
      "geometry": {
        "type": "Point",
        "coordinates": [
          51.64123132321624,
          10.931288342917624
        ]
      }
    },
    {
      "type": "Feature",
      "properties": {
        "norad_id": 35771,
        "name": "COSMOS 2251 DEB",
        "group": "cosmos-2251-debris",
        "lat": -10.143475246858735,
        "lon": 150.38539359996307,
        "alt_km": 813.2401255437826,
        "timestamp": "2025-12-02T23:34:15.913869+00:00",
        "meta_object_name": "COSMOS 2251 DEB",
        "meta_object_id": "1993-036ARR",
        "meta_epoch": "2025-12-01T22:51:30.244896",
        "meta_mean_motion": 14.12926683,
        "meta_eccentricity": 0.02319351,
        "meta_inclination": 74.1552,
        "meta_ra_of_asc_node": 329.2812,
        "meta_arg_of_pericenter": 270.0606,
        "meta_mean_anomaly": 87.396,
        "meta_ephemeris_type": 0,
        "meta_classification_type": "U",
        "meta_norad_cat_id": 35771,
        "meta_element_set_no": 999,
        "meta_rev_at_epoch": 82708,
        "meta_bstar": 0.0067662276,
        "meta_mean_motion_dot": 0.00016281,
        "meta_mean_motion_ddot": 0,
        "tle_line1": "1 35771U 93036ARR 25335.95243339  .00016281  00000+0  67662-2 0  9996",
        "tle_line2": "2 35771  74.1552 329.2812 0231935 270.0606  87.3960 14.12926683827080"
      },
      "geometry": {
        "type": "Point",
        "coordinates": [
          150.38539359996307,
          -10.143475246858735
        ]
      }
    },
    {
      "type": "Feature",
      "properties": {
        "norad_id": 35773,
        "name": "COSMOS 2251 DEB",
        "group": "cosmos-2251-debris",
        "lat": 26.635815778558072,
        "lon": 171.26577151312944,
        "alt_km": 653.3680738882049,
        "timestamp": "2025-12-02T23:34:15.913879+00:00",
        "meta_object_name": "COSMOS 2251 DEB",
        "meta_object_id": "1993-036ART",
        "meta_epoch": "2025-12-02T11:22:55.223328",
        "meta_mean_motion": 14.61975653,
        "meta_eccentricity": 0.0046128,
        "meta_inclination": 74.0081,
        "meta_ra_of_asc_node": 0.509,
        "meta_arg_of_pericenter": 163.389,
        "meta_mean_anomaly": 196.8801,
        "meta_ephemeris_type": 0,
        "meta_classification_type": "U",
        "meta_norad_cat_id": 35773,
        "meta_element_set_no": 999,
        "meta_rev_at_epoch": 86689,
        "meta_bstar": 0.00069667,
        "meta_mean_motion_dot": 3.515e-05,
        "meta_mean_motion_ddot": 0,
        "tle_line1": "1 35773U 93036ART 25336.47425027  .00003515  00000+0  69667-3 0  9996",
        "tle_line2": "2 35773  74.0081   0.5090 0046128 163.3890 196.8801 14.61975653866899"
      },
      "geometry": {
        "type": "Point",
        "coordinates": [
          171.26577151312944,
          26.635815778558072
        ]
      }
    }
  ]
}